[
    {
        "Altitude(m)": 559864.1310118433,
        "Argument of Periapsis(deg)": 0.006622991110713501,
        "Eccentricity": 0.0,
        "Inclination(deg)": 53.0,
        "Latitude(deg)": 52.98979102102619,
        "Longitude(deg)": 85.4244083714924,
        "Mean Anomaly(deg)": 93.72799286757758,
        "RAAN(deg)": 89.99014336852801,
        "Satellite Name": "Starlink Shell 1 401",
        "Satellite Number": 401,
        "Semi-Major Axis(m)": 6931778.249405717,
        "Time(s)": 190
    },
    {
        "Altitude(m)": 559850.9068041843,
        "Argument of Periapsis(deg)": 0.0069715695902247375,
        "Eccentricity": 0.0,
        "Inclination(deg)": 53.0,
        "Latitude(deg)": 52.93124597030189,
        "Longitude(deg)": 86.41633177650994,
        "Mean Anomaly(deg)": 94.3548240711343,
        "RAAN(deg)": 89.98962459845053,
        "Satellite Name": "Starlink Shell 1 401",
        "Satellite Number": 401,
        "Semi-Major Axis(m)": 6931778.249405717,
        "Time(s)": 200
    },
    {
        "Altitude(m)": 559835.6434407927,
        "Argument of Periapsis(deg)": 0.007320148069735974,
        "Eccentricity": 0.0,
        "Inclination(deg)": 53.0,
        "Latitude(deg)": 52.86374678643368,
        "Longitude(deg)": 87.40526064081236,
        "Mean Anomaly(deg)": 94.98165527469101,
        "RAAN(deg)": 89.98910582837307,
        "Satellite Name": "Starlink Shell 1 401",
        "Satellite Number": 401,
        "Semi-Major Axis(m)": 6931778.249405717,
        "Time(s)": 210
    },
    {
        "Altitude(m)": 559818.3501217277,
        "Argument of Periapsis(deg)": 0.007668726549247212,
        "Eccentricity": 0.0,
        "Inclination(deg)": 53.0,
        "Latitude(deg)": 52.78734267050754,
        "Longitude(deg)": 88.39078944494506,
        "Mean Anomaly(deg)": 95.60848647824776,
        "RAAN(deg)": 89.9885870582956,
        "Satellite Name": "Starlink Shell 1 401",
        "Satellite Number": 401,
        "Semi-Major Axis(m)": 6931778.249405717,
        "Time(s)": 220
    },
    {
        "Altitude(m)": 559799.0372688553,
        "Argument of Periapsis(deg)": 0.00801730502875845,
        "Eccentricity": 0.0,
        "Inclination(deg)": 53.0,
        "Latitude(deg)": 52.70208888783188,
        "Longitude(deg)": 89.37252245607918,
        "Mean Anomaly(deg)": 96.23531768180446,
        "RAAN(deg)": 89.98806828821812,
        "Satellite Name": "Starlink Shell 1 401",
        "Satellite Number": 401,
        "Semi-Major Axis(m)": 6931778.249405717,
        "Time(s)": 230
    },
    {
        "Altitude(m)": 559777.7165207885,
        "Argument of Periapsis(deg)": 0.008365883508269684,
        "Eccentricity": 0.0,
        "Inclination(deg)": 53.0,
        "Latitude(deg)": 52.60804657556701,
        "Longitude(deg)": 90.35007523687706,
        "Mean Anomaly(deg)": 96.8621488853612,
        "RAAN(deg)": 89.98754951814065,
        "Satellite Name": "Starlink Shell 1 401",
        "Satellite Number": 401,
        "Semi-Major Axis(m)": 6931778.249405717,
        "Time(s)": 240
    },
    {
        "Altitude(m)": 559754.400727192,
        "Argument of Periapsis(deg)": 0.008714461987780921,
        "Eccentricity": 0.0,
        "Inclination(deg)": 53.0,
        "Latitude(deg)": 52.505282533049616,
        "Longitude(deg)": 91.32307456816176,
        "Mean Anomaly(deg)": 97.4889800889179,
        "RAAN(deg)": 89.98703074806318,
        "Satellite Name": "Starlink Shell 1 401",
        "Satellite Number": 401,
        "Semi-Major Axis(m)": 6931778.249405717,
        "Time(s)": 250
    },
    {
        "Altitude(m)": 559729.1039425127,
        "Argument of Periapsis(deg)": 0.009063040467292158,
        "Eccentricity": 0.0,
        "Inclination(deg)": 53.0,
        "Latitude(deg)": 52.3938689964472,
        "Longitude(deg)": 92.29115980647238,
        "Mean Anomaly(deg)": 98.1158112924746,
        "RAAN(deg)": 89.9865119779857,
        "Satellite Name": "Starlink Shell 1 401",
        "Satellite Number": 401,
        "Semi-Major Axis(m)": 6931778.249405717,
        "Time(s)": 260
    },
    {
        "Altitude(m)": 559701.841419149,
        "Argument of Periapsis(deg)": 0.009411618946803396,
        "Eccentricity": 0.0,
        "Inclination(deg)": 53.0,
        "Latitude(deg)": 52.273883399469156,
        "Longitude(deg)": 93.25398415977853,
        "Mean Anomaly(deg)": 98.74264249603131,
        "RAAN(deg)": 89.98599320790824,
        "Satellite Name": "Starlink Shell 1 401",
        "Satellite Number": 401,
        "Semi-Major Axis(m)": 6931778.249405717,
        "Time(s)": 270
    },
    {
        "Altitude(m)": 559672.6295999633,
        "Argument of Periapsis(deg)": 0.009760197426314633,
        "Eccentricity": 0.0,
        "Inclination(deg)": 53.0,
        "Latitude(deg)": 52.14540812183157,
        "Longitude(deg)": 94.2112143662917,
        "Mean Anomaly(deg)": 99.36947369958803,
        "RAAN(deg)": 89.98547443783076,
        "Satellite Name": "Starlink Shell 1 401",
        "Satellite Number": 401,
        "Semi-Major Axis(m)": 6931778.249405717,
        "Time(s)": 280
    },
    {
        "Altitude(m)": 559641.4861103026,
        "Argument of Periapsis(deg)": 0.01010877590582587,
        "Eccentricity": 0.0,
        "Inclination(deg)": 53.0,
        "Latitude(deg)": 52.00853022746121,
        "Longitude(deg)": 95.16253179879561,
        "Mean Anomaly(deg)": 99.99630490314473,
        "RAAN(deg)": 89.98495566775328,
        "Satellite Name": "Starlink Shell 1 401",
        "Satellite Number": 401,
        "Semi-Major Axis(m)": 6931778.249405717,
        "Time(s)": 290
    },
    {
        "Altitude(m)": 559608.4297493388,
        "Argument of Periapsis(deg)": 0.010457354385337106,
        "Eccentricity": 0.0,
        "Inclination(deg)": 53.0,
        "Latitude(deg)": 51.86334119403483,
        "Longitude(deg)": 96.10763348257676,
        "Mean Anomaly(deg)": 100.62313610670145,
        "RAAN(deg)": 89.98443689767582,
        "Satellite Name": "Starlink Shell 1 401",
        "Satellite Number": 401,
        "Semi-Major Axis(m)": 6931778.249405717,
        "Time(s)": 300
    },
    {
        "Altitude(m)": 559573.4804809305,
        "Argument of Periapsis(deg)": 0.010805932864848343,
        "Eccentricity": 0.0,
        "Inclination(deg)": 53.0,
        "Latitude(deg)": 51.70993663582834,
        "Longitude(deg)": 97.04623151265668,
        "Mean Anomaly(deg)": 101.24996731025817,
        "RAAN(deg)": 89.98391812759834,
        "Satellite Name": "Starlink Shell 1 401",
        "Satellite Number": 401,
        "Semi-Major Axis(m)": 6931778.249405717,
        "Time(s)": 310
    },
    {
        "Altitude(m)": 559536.6594238468,
        "Argument of Periapsis(deg)": 0.01115451134435958,
        "Eccentricity": 0.0,
        "Inclination(deg)": 53.0,
        "Latitude(deg)": 51.54841602160322,
        "Longitude(deg)": 97.978053897403,
        "Mean Anomaly(deg)": 101.87679851381489,
        "RAAN(deg)": 89.98339935752087,
        "Satellite Name": "Starlink Shell 1 401",
        "Satellite Number": 401,
        "Semi-Major Axis(m)": 6931778.249405717,
        "Time(s)": 320
    },
    {
        "Altitude(m)": 559497.9888414248,
        "Argument of Periapsis(deg)": 0.011503089823870818,
        "Eccentricity": 0.0,
        "Inclination(deg)": 53.0,
        "Latitude(deg)": 51.37888238928205,
        "Longitude(deg)": 98.90284531712996,
        "Mean Anomaly(deg)": 102.50362971737161,
        "RAAN(deg)": 89.9828805874434,
        "Satellite Name": "Starlink Shell 1 401",
        "Satellite Number": 401,
        "Semi-Major Axis(m)": 6931778.249405717,
        "Time(s)": 330
    },
    {
        "Altitude(m)": 559457.4921307092,
        "Argument of Periapsis(deg)": 0.011851668303382053,
        "Eccentricity": 0.0,
        "Inclination(deg)": 53.0,
        "Latitude(deg)": 51.201442059095385,
        "Longitude(deg)": 99.82036628710908,
        "Mean Anomaly(deg)": 103.13046092092833,
        "RAAN(deg)": 89.98236181736593,
        "Satellite Name": "Starlink Shell 1 401",
        "Satellite Number": 401,
        "Semi-Major Axis(m)": 6931778.249405717,
        "Time(s)": 340
    },
    {
        "Altitude(m)": 559415.1938109886,
        "Argument of Periapsis(deg)": 0.012200246782893292,
        "Eccentricity": 0.0,
        "Inclination(deg)": 53.0,
        "Latitude(deg)": 51.01620434680685,
        "Longitude(deg)": 100.73039375367756,
        "Mean Anomaly(deg)": 103.75729212448503,
        "RAAN(deg)": 89.98184304728845,
        "Satellite Name": "Starlink Shell 1 401",
        "Satellite Number": 401,
        "Semi-Major Axis(m)": 6931778.249405717,
        "Time(s)": 350
    },
    {
        "Altitude(m)": 559371.1195117753,
        "Argument of Periapsis(deg)": 0.012548825262404526,
        "Eccentricity": 0.0,
        "Inclination(deg)": 53.0,
        "Latitude(deg)": 50.823281278534395,
        "Longitude(deg)": 101.63272161407606,
        "Mean Anomaly(deg)": 104.38412332804175,
        "RAAN(deg)": 89.98132427721097,
        "Satellite Name": "Starlink Shell 1 401",
        "Satellite Number": 401,
        "Semi-Major Axis(m)": 6931778.249405717,
        "Time(s)": 360
    },
    {
        "Altitude(m)": 559325.2959602785,
        "Argument of Periapsis(deg)": 0.012897403741915765,
        "Eccentricity": 0.0,
        "Inclination(deg)": 53.0,
        "Latitude(deg)": 50.62278730858863,
        "Longitude(deg)": 102.52715965112685,
        "Mean Anomaly(deg)": 105.01095453159847,
        "RAAN(deg)": 89.98080550713351,
        "Satellite Name": "Starlink Shell 1 401",
        "Satellite Number": 401,
        "Semi-Major Axis(m)": 6931778.249405717,
        "Time(s)": 370
    }
]